PACE-1                  
1 48909U 21059AG  26196.79782863  .00098890  00000+0  41238-3 0  9995
2 48909  97.6727  38.2864 0003374 179.8427 180.2844 15.85408183282323
YAM-3                   
1 48915U 21059AN  26196.75202007  .00007476  00000+0  13927-3 0  9999
2 48915  97.6990  25.5871 0003948 239.2869 120.7992 15.49156916281413
FARADAY_PHOENIX         
1 48924U 21059AX  26196.47807553  .00150494  00000+0  57363-3 0  9996
2 48924  97.6766  37.8400 0005755 197.3820 162.7255 15.87123553282138
DEMO8 (TENZING)         
1 48951U 21059CA  26196.80317363  .00013212  00000+0  19109-3 0  9990
2 48951  97.7005  32.4231 0005722 229.0954 130.9804 15.56044578281752
FENGYUN 3E              
1 49008U 21062A   26196.88171315 -.00000325  00000+0 -13227-3 0  9999
2 49008  98.7495 199.9702 0002247  37.9386 322.1949 14.19905471260653
ISS (NAUKA)             
1 49044U 21066A   26196.76640667  .00004078  00000+0  82095-4 0  9998
2 49044  51.6311 158.6576 0006719 300.0875  59.9447 15.49019038575201
STARLINK-3100           
1 49144U 21082Q   26196.81382471 -.00000816  00000+0 -60572-4 0  9993
2 49144  70.0004 331.3993 0002874 266.7719  93.3111 14.98328523265179
CUTE                    
1 49263U 21088D   26196.79655434  .03733040  24724-5  10683-2 0  9994
2 49263  97.3958 299.2359 0012959 282.5095  77.4748 16.27350180267132
2021-091B               
1 49316U 21091B   26196.85442745  .00002010  00000+0  10010-3 0  9996
2 49316  97.4468  23.9950 0011988 305.6125  54.3992 15.18684725263336
SDGSAT 1                
1 49387U 21100A   26196.88264815  .00000587  00000+0  30906-4 0  9992
2 49387  97.2615 242.7344 0009846 160.5671 199.5941 15.19236723260276
TEIKYOSAT-4 (OORURI)    
1 49396U 21102B   26196.69021021  .00001179  00000+0  77063-4 0  9996
2 49396  97.3664 225.0657 0011790 186.7598 173.3474 15.09600016257020
Z-SAT                   
1 49399U 21102E   26196.86551836  .00001150  00000+0  58850-4 0  9992
2 49399  97.3309 231.3188 0017678 142.0873 218.1610 15.18463752257798
HIBARI                  
1 49400U 21102F   26196.09187288  .00006652  00000+0  21539-3 0  9991
2 49400  97.3220 241.6844 0013302 101.7121 258.5614 15.32277830258467
KOSEN-1                 
1 49402U 21102H   26196.05696261  .00004499  00000+0  17088-3 0  9996
2 49402  97.3170 237.6768 0015405 108.0940 252.1979 15.27213078258279
GLOBAL-14               
1 49469U 21106A   26196.80083846  .00017797  00000+0  29238-3 0  9990
2 49469  42.0038 120.8587 0017898 228.0768 131.8551 15.51850044262577
GAOFEN-3 02             
1 49495U 21109A   26196.91009486 -.00000024  00000+0  59818-5 0  9997
2 49495  98.4087 204.5990 0001322 262.9842  97.1198 14.42220211244452
GLOBAL-12               
1 49772U 21115BA  26196.81243279  .00020085  00000+0  29671-3 0  9991
2 49772  53.1940 266.7159 0002893  72.0106 288.1222 15.55356140260353
GLOBAL-13               
1 49773U 21115BB  26196.81159713  .00011490  00000+0  23110-3 0  9993
2 49773  53.1971 278.4021 0000520 153.6810 206.4225 15.47126438260193
GLOBAL-17               
1 49949U 21120A   26196.57788431  .00017117  00000+0  26377-3 0  9992
2 49949  41.9930 239.9281 0013343  93.8400 266.3971 15.53730283259316
GLOBAL-16               
1 49950U 21120B   26196.56650817  .00015629  00000+0  26176-3 0  9992
2 49950  41.9931 244.2767 0011440  83.1889 277.0256 15.51494616259259
XW-3 (CAS-9)            
1 50466U 21131B   26196.86330696  .00000270  00000+0  96878-4 0  9994
2 50466  98.4993 289.0983 0004556  28.6409 331.5029 14.41382051239245
ION SCV-004             
1 50993U 22002K   26196.73890132  .00002952  00000+0  10196-3 0  9996
2 50993  97.2817 253.8635 0005731 244.5639 115.5009 15.30711830249660
ETV-A1                  
1 51060U 22002CE  26196.84553014  .00006630  00000+0  16154-3 0  9996
2 51060  97.2864 263.0772 0003988 222.4381 137.6558 15.41242867250256
BRO-5                   
1 51061U 22002CF  26196.81972726  .00020921  00000+0  38892-3 0  9991
2 51061  97.2987 270.7718 0005438 201.0165 159.0863 15.48907532250681
LUDI TANCE 1-01A (L-SA*)
1 51284U 22007A   26196.88702279  .00000278  00000+0  35844-4 0  9992
2 51284  97.8106 203.8996 0001622  91.4052 268.7351 14.88420210242743
LUDI TANCE 1-01B (L-SA*)
1 51822U 22018A   26196.85341865  .00000265  00000+0  34414-4 0  9997
2 51822  97.8110 203.8648 0001625  91.8110 268.3292 14.88414250237978
2022-023F               
1 51951U 22023F   26196.60429742  .00005974  00000+0  24188-3 0  9998
2 51951  63.4447 176.8777 0133092 341.6027  18.0295 15.17980335242022
