OBJECT_NAME,OBJECT_ID,EPOCH,MEAN_MOTION,ECCENTRICITY,INCLINATION,RA_OF_ASC_NODE,ARG_OF_PERICENTER,MEAN_ANOMALY,EPHEMERIS_TYPE,CLASSIFICATION_TYPE,NORAD_CAT_ID,ELEMENT_SET_NO,REV_AT_EPOCH,BSTAR,MEAN_MOTION_DOT,MEAN_MOTION_DDOT
PACE-1,2021-059AG,2026-07-15T19:08:52.393632,15.85408183,.0003374,97.6727,38.2864,179.8427,180.2844,0,U,48909,999,28232,.41238E-3,.9889E-3,0
YAM-3,2021-059AN,2026-07-15T18:02:54.534048,15.49156916,.0003948,97.6990,25.5871,239.2869,120.7992,0,U,48915,999,28141,.13927E-3,.7476E-4,0
FARADAY_PHOENIX,2021-059AX,2026-07-15T11:28:25.725792,15.87123553,.00057555,97.6766,37.8400,197.3820,162.7255,0,U,48924,999,28213,.57363129E-3,.150494E-2,0
DEMO8 (TENZING),2021-059CA,2026-07-15T19:16:34.201632,15.56044578,.0005722,97.7005,32.4231,229.0954,130.9804,0,U,48951,999,28175,.19109E-3,.13212E-3,0
FENGYUN 3E,2021-062A,2026-07-15T21:09:40.016160,14.19905471,.0002247,98.7495,199.9702,37.9386,322.1949,0,U,49008,999,26065,-.13227E-3,-.325E-5,0
ISS (NAUKA),2021-066A,2026-07-15T18:23:37.536288,15.49019038,.0006719,51.6311,158.6576,300.0875,59.9447,0,U,49044,999,57520,.82095E-4,.4078E-4,0
STARLINK-3100,2021-082Q,2026-07-15T19:31:54.454944,14.98328523,.0002874,70.0004,331.3993,266.7719,93.3111,0,U,49144,999,26517,-.60572E-4,-.816E-5,0
CUTE,2021-088D,2026-07-15T19:07:02.294976,16.27350180,.0012959,97.3958,299.2359,282.5095,77.4748,0,U,49263,999,26713,.10683E-2,.373304E-1,.24724E-5
2021-091B,2021-091B,2026-07-15T20:30:22.531680,15.18684725,.0011988,97.4468,23.9950,305.6125,54.3992,0,U,49316,999,26333,.1001E-3,.201E-4,0
SDGSAT 1,2021-100A,2026-07-15T21:11:00.800160,15.19236723,.0009846,97.2615,242.7344,160.5671,199.5941,0,U,49387,999,26027,.30906E-4,.587E-5,0
TEIKYOSAT-4 (OORURI),2021-102B,2026-07-15T16:33:54.162144,15.09600016,.001179,97.3664,225.0657,186.7598,173.3474,0,U,49396,999,25702,.77063E-4,.1179E-4,0
Z-SAT,2021-102E,2026-07-15T20:46:20.786304,15.18463752,.0017678,97.3309,231.3188,142.0873,218.1610,0,U,49399,999,25779,.5885E-4,.115E-4,0
HIBARI,2021-102F,2026-07-15T02:12:17.816832,15.32277830,.0013302,97.3220,241.6844,101.7121,258.5614,0,U,49400,999,25846,.21538896E-3,.6652E-4,0
KOSEN-1,2021-102H,2026-07-15T01:22:01.569504,15.27213078,.00154056,97.3170,237.6768,108.0940,252.1979,0,U,49402,999,25827,.17087955E-3,.4499E-4,0
GLOBAL-14,2021-106A,2026-07-15T19:13:12.442944,15.51850044,.0017898,42.0038,120.8587,228.0768,131.8551,0,U,49469,999,26257,.29238E-3,.17797E-3,0
GAOFEN-3 02,2021-109A,2026-07-15T21:50:32.195904,14.42220211,.0001322,98.4087,204.5990,262.9842,97.1198,0,U,49495,999,24445,.59818E-5,-.24E-6,0
GLOBAL-12,2021-115BA,2026-07-15T19:29:54.193056,15.55356140,.0002893,53.1940,266.7159,72.0106,288.1222,0,U,49772,999,26035,.29671E-3,.20085E-3,0
GLOBAL-13,2021-115BB,2026-07-15T19:28:41.992032,15.47126438,.000052,53.1971,278.4021,153.6810,206.4225,0,U,49773,999,26019,.2311E-3,.1149E-3,0
GLOBAL-17,2021-120A,2026-07-15T13:52:09.204384,15.53730283,.0013343,41.9930,239.9281,93.8400,266.3971,0,U,49949,999,25931,.26377E-3,.17117E-3,0
GLOBAL-16,2021-120B,2026-07-15T13:35:46.305888,15.51494616,.001144,41.9931,244.2767,83.1889,277.0256,0,U,49950,999,25925,.26176E-3,.15629E-3,0
XW-3 (CAS-9),2021-131B,2026-07-15T20:43:09.721344,14.41382051,.0004556,98.4993,289.0983,28.6409,331.5029,0,U,50466,999,23924,.96878E-4,.27E-5,0
ION SCV-004,2022-002K,2026-07-15T17:44:01.074048,15.30711830,.0005731,97.2817,253.8635,244.5639,115.5009,0,U,50993,999,24966,.10196E-3,.2952E-4,0
ETV-A1,2022-002CE,2026-07-15T20:17:33.804096,15.41242867,.0003988,97.2864,263.0772,222.4381,137.6558,0,U,51060,999,25025,.16154E-3,.663E-4,0
BRO-5,2022-002CF,2026-07-15T19:40:24.435264,15.48907532,.0005438,97.2987,270.7718,201.0165,159.0863,0,U,51061,999,25068,.38892E-3,.20921E-3,0
LUDI TANCE 1-01A (L-SAR 01A),2022-007A,2026-07-15T21:17:18.769056,14.88420210,.0001622,97.8106,203.8996,91.4052,268.7351,0,U,51284,999,24274,.35844E-4,.278E-5,0
LUDI TANCE 1-01B (L-SAR 01B),2022-018A,2026-07-15T20:28:55.371360,14.88414250,.0001625,97.8110,203.8648,91.8110,268.3292,0,U,51822,999,23797,.34414E-4,.265E-5,0
2022-023F,2022-023F,2026-07-15T14:30:11.297088,15.17980335,.0133092,63.4447,176.8777,341.6027,18.0295,0,U,51951,999,24202,.24188E-3,.5974E-4,0
